NORAD_CAT_ID,OBJECT_NAME,OBJECT_TYPE,EPOCH,MEAN_MOTION,ECCENTRICITY,INCLINATION,RA_OF_ASC_NODE,ARG_OF_PERICENTER,MEAN_ANOMALY,BSTAR,MEAN_MOTION_DOT,MEAN_MOTION_DDOT,TLE_LINE0,TLE_LINE1,TLE_LINE2,SEMIMAJOR_AXIS,PERIOD,APOGEE,PERIGEE,DECAYED
50176.0,STARLINK-3293,PAYLOAD,2024-05-24 19:58:26,15.08860004,0.0001271,53.2164,304.4022,87.6191,272.4947,0.00045732,7.002e-05,0.0,0 STARLINK-3293,1 50176U 21125W   24145.83225613  .00007002  00000-0  45732-3 0  9999,2 50176  53.2164 304.4022 0001271  87.6191 272.4947 15.08860004137930,6917.819,95.436,540.564,538.805,0.0
50176.0,STARLINK-3293,PAYLOAD,2024-05-25 19:49:14,15.08837867,0.0001553,53.2162,299.9406,94.4777,265.6393,-3.2625e-05,-8.07e-06,0.0,0 STARLINK-3293,1 50176U 21125W   24146.82586658 -.00000807  00000-0 -32625-4 0  9994,2 50176  53.2162 299.9406 0001553  94.4777 265.6393 15.08837867134950,6917.887,95.438,540.826,538.678,0.0
50176.0,STARLINK-3293,PAYLOAD,2024-05-26 14:53:52,15.08844639,0.0001403,53.2165,296.3765,91.2017,268.9136,-2.6308e-05,-7.07e-06,0.0,0 STARLINK-3293,1 50176U 21125W   24147.62074626 -.00000707  00000-0 -26308-4 0  9990,2 50176  53.2165 296.3765 0001403  91.2017 268.9136 15.08844639138206,6917.866,95.437,540.702,538.761,0.0
50176.0,STARLINK-3293,PAYLOAD,2024-05-26 16:29:15,15.08848557,0.0001443,53.2163,296.0757,100.2272,259.8883,1.0886e-05,-1.15e-06,0.0,0 STARLINK-3293,1 50176U 21125W   24147.68698311 -.00000115  00000-0  10886-4 0  9995,2 50176  53.2163 296.0757 0001443 100.2272 259.8883 15.08848557135084,6917.854,95.437,540.717,538.721,0.0
50176.0,STARLINK-3293,PAYLOAD,2024-05-27 13:09:16,15.08835074,0.0001492,53.2168,292.2101,96.8682,263.248,0.0002152,3.138e-05,0.0,0 STARLINK-3293,1 50176U 21125W   24148.54811104  .00003138  00000-0  21520-3 0  9991,2 50176  53.2168 292.2101 0001492  96.8682 263.2480 15.08835074135216,6917.895,95.438,540.793,538.728,0.0
50176.0,STARLINK-3293,PAYLOAD,2024-05-27 14:44:39,15.08839151,0.0001772,53.2185,291.9142,107.852,252.2666,0.00012593,1.717e-05,0.0,0 STARLINK-3293,1 50176U 21125W   24148.61434910  .00001717  00000-0  12593-3 0  9996,2 50176  53.2185 291.9142 0001772 107.8520 252.2666 15.08839151138353,6917.883,95.438,540.974,538.522,0.0
50176.0,STARLINK-3293,PAYLOAD,2024-05-27 16:20:02,15.08839386,0.0001771,53.2185,291.6168,107.8964,252.2221,0.00012402,1.686e-05,0.0,0 STARLINK-3293,1 50176U 21125W   24148.68058903  .00001686  00000-0  12402-3 0  9991,2 50176  53.2185 291.6168 0001771 107.8964 252.2221 15.08839386138367,6917.882,95.438,540.972,538.522,0.0
50176.0,STARLINK-3293,PAYLOAD,2024-05-28 14:35:27,15.08838218,0.0001561,53.2188,287.4516,110.0862,250.0299,5.8342e-06,-1.95e-06,0.0,0 STARLINK-3293,1 50176U 21125W   24149.60795270 -.00000195  00000-0  58342-5 0  9999,2 50176  53.2188 287.4516 0001561 110.0862 250.0299 15.08838218138500,6917.886,95.438,540.831,538.671,0.0
50176.0,STARLINK-3293,PAYLOAD,2024-05-28 16:10:50,15.08837607,0.0001436,53.2185,287.1544,100.5806,259.5348,-5.2061e-06,-3.71e-06,0.0,0 STARLINK-3293,1 50176U 21125W   24149.67419367 -.00000371  00000-0 -52061-5 0  9995,2 50176  53.2185 287.1544 0001436 100.5806 259.5348 15.08837607135381,6917.888,95.438,540.746,538.759,0.0
50176.0,STARLINK-3293,PAYLOAD,2024-05-29 14:26:13,15.08845777,0.000126,53.2177,282.9911,81.787,278.3265,7.0628e-05,8.37e-06,0.0,0 STARLINK-3293,1 50176U 21125W   24150.60154897  .00000837  00000-0  70628-4 0  9997,2 50176  53.2177 282.9911 0001260  81.7870 278.3265 15.08845777138656,6917.863,95.437,540.599,538.856,0.0
50176.0,STARLINK-3293,PAYLOAD,2024-05-30 14:17:00,15.08846969,0.0001309,53.2176,278.5308,76.1394,283.9744,0.00018219,2.613e-05,0.0,0 STARLINK-3293,1 50176U 21125W   24151.59514728  .00002613  00000-0  18219-3 0  9990,2 50176  53.2176 278.5308 0001309  76.1394 283.9744 15.08846969138804,6917.859,95.437,540.63,538.819,0.0
50176.0,STARLINK-3293,PAYLOAD,2024-05-30 17:27:46,15.08853896,0.0001553,53.2186,277.9377,92.3418,267.7752,0.00020777,3.021e-05,0.0,0 STARLINK-3293,1 50176U 21125W   24151.72762184  .00003021  00000-0  20777-3 0  9992,2 50176  53.2186 277.9377 0001553  92.3418 267.7752 15.08853896135692,6917.838,95.437,540.777,538.629,0.0
50176.0,STARLINK-3293,PAYLOAD,2024-05-31 12:32:24,15.08848826,0.0001591,53.2184,274.3701,97.0545,263.0628,-7.7907e-05,-1.528e-05,0.0,0 STARLINK-3293,1 50176U 21125W   24152.52250325 -.00001528  00000-0 -77907-4 0  9990,2 50176  53.2184 274.3701 0001591  97.0545 263.0628 15.08848826135819,6917.853,95.437,540.819,538.618,0.0
50176.0,STARLINK-3293,PAYLOAD,2024-05-31 14:07:47,15.08849621,0.0001475,53.2182,274.0702,113.7892,246.3255,8.6339e-05,1.087e-05,0.0,0 STARLINK-3293,1 50176U 21125W   24152.58874323  .00001087  00000-0  86339-4 0  9993,2 50176  53.2182 274.0702 0001475 113.7892 246.3255 15.08849621138959,6917.851,95.437,540.736,538.696,0.0
50176.0,STARLINK-3293,PAYLOAD,2024-05-31 15:43:10,15.08853397,0.0001244,53.2171,273.7724,61.0876,299.0241,0.0001225,1.663e-05,0.0,0 STARLINK-3293,1 50176U 21125W   24152.65498164  .00001663  00000-0  12250-3 0  9996,2 50176  53.2171 273.7724 0001244  61.0876 299.0241 15.08853397138964,6917.839,95.437,540.565,538.844,0.0
50176.0,STARLINK-3293,PAYLOAD,2024-06-01 01:15:29,15.08839768,9.95e-05,53.2179,271.9907,85.9388,274.1717,1.4328e-06,-2.65e-06,0.0,0 STARLINK-3293,1 50176U 21125W   24153.05242991 -.00000265  00000-0  14328-5 0  9994,2 50176  53.2179 271.9907 0000995  85.9388 274.1717 15.08839768135897,6917.881,95.438,540.434,539.058,0.0
50176.0,STARLINK-3293,PAYLOAD,2024-06-01 13:58:35,15.08830079,0.0001235,53.2171,269.6116,87.9482,272.1651,-5.2114e-05,-1.117e-05,0.0,0 STARLINK-3293,1 50176U 21125W   24153.58236068 -.00001117  00000-0 -52114-4 0  9992,2 50176  53.2171 269.6116 0001235  87.9482 272.1651 15.08830079135970,6917.911,95.438,540.63,538.921,0.0
50176.0,STARLINK-3293,PAYLOAD,2024-06-02 01:06:16,15.08845929,0.0001231,53.2173,267.5297,95.3455,264.7678,1.7998e-06,-2.59e-06,0.0,0 STARLINK-3293,1 50176U 21125W   24154.04602918 -.00000259  00000-0  17998-5 0  9992,2 50176  53.2173 267.5297 0001231  95.3455 264.7678 15.08845929136043,6917.862,95.437,540.579,538.876,0.0
50176.0,STARLINK-3293,PAYLOAD,2024-06-02 13:49:22,15.088474,0.0001311,53.2158,265.1511,83.2743,276.8398,0.00030732,4.607e-05,0.0,0 STARLINK-3293,1 50176U 21125W   24154.57595019  .00004607  00000-0  30732-3 0  9992,2 50176  53.2158 265.1511 0001311  83.2743 276.8398 15.08847400139259,6917.858,95.437,540.63,538.816,0.0
50176.0,STARLINK-3293,PAYLOAD,2024-06-03 13:40:09,15.08844766,0.0001362,53.2167,260.6904,95.812,264.3028,0.00030819,4.621e-05,0.0,0 STARLINK-3293,1 50176U 21125W   24155.56955301  .00004621  00000-0  30819-3 0  9998,2 50176  53.2167 260.6904 0001362  95.8120 264.3028 15.08844766136272,6917.866,95.437,540.673,538.789,0.0
50176.0,STARLINK-3293,PAYLOAD,2024-06-04 13:30:55,15.08855316,0.0001068,53.214,256.2298,85.2577,274.8537,0.00021202,3.089e-05,0.0,0 STARLINK-3293,1 50176U 21125W   24156.56314452  .00003089  00000-0  21202-3 0  9998,2 50176  53.2140 256.2298 0001068  85.2577 274.8537 15.08855316139550,6917.834,95.437,540.437,538.96,0.0
50176.0,STARLINK-3293,PAYLOAD,2024-06-05 05:24:47,15.08839908,0.0001913,53.2148,253.2544,97.3567,262.7643,1.8599e-05,8e-08,0.0,0 STARLINK-3293,1 50176U 21125W   24157.22555007  .00000008  00000-0  18599-4 0  9999,2 50176  53.2148 253.2544 0001913  97.3567 262.7643 15.08839908136528,6917.881,95.438,541.069,538.422,0.0
50176.0,STARLINK-3293,PAYLOAD,2024-06-05 13:21:42,15.08843605,0.0001358,53.2155,251.7711,101.2898,258.8247,8.7081e-05,1.098e-05,0.0,0 STARLINK-3293,1 50176U 21125W   24157.55674738  .00001098  00000-0  87081-4 0  9990,2 50176  53.2155 251.7711 0001358 101.2898 258.8247 15.08843605139708,6917.869,95.437,540.674,538.795,0.0
50176.0,STARLINK-3293,PAYLOAD,2024-06-06 13:12:30,15.08829352,0.0001415,53.2158,247.3124,97.5089,262.6064,-8.2829e-05,-1.606e-05,0.0,0 STARLINK-3293,1 50176U 21125W   24158.55035745 -.00001606  00000-0 -82829-4 0  9992,2 50176  53.2158 247.3124 0001415  97.5089 262.6064 15.08829352136725,6917.913,95.438,540.757,538.799,0.0
50176.0,STARLINK-3293,PAYLOAD,2024-06-07 14:38:40,15.08855269,0.0001425,53.2167,242.5532,93.8109,266.3046,0.00076336,0.00011887,0.0,0 STARLINK-3293,1 50176U 21125W   24159.61019506  .00011887  00000-0  76336-3 0  9992,2 50176  53.2167 242.5532 0001425  93.8109 266.3046 15.08855269140012,6917.834,95.437,540.685,538.713,0.0
50176.0,STARLINK-3293,PAYLOAD,2024-06-07 22:35:36,15.08851578,0.0001551,53.2181,241.0623,83.7368,276.38,0.00042682,6.513e-05,0.0,0 STARLINK-3293,1 50176U 21125W   24159.94139331  .00006513  00000-0  42682-3 0  9994,2 50176  53.2181 241.0623 0001551  83.7368 276.3800 15.08851578140061,6917.845,95.437,540.783,538.637,0.0
50176.0,STARLINK-3293,PAYLOAD,2024-06-08 14:29:27,15.08863052,0.0001669,53.2155,238.0922,82.832,277.2862,0.00048633,7.465e-05,0.0,0 STARLINK-3293,1 50176U 21125W   24160.60378672  .00007465  00000-0  48633-3 0  9991,2 50176  53.2155 238.0922 0001669  82.8320 277.2862 15.08863052140167,6917.81,95.436,540.83,538.52,0.0
50176.0,STARLINK-3293,PAYLOAD,2024-06-08 22:26:23,15.08845203,0.000134,53.2154,236.6057,92.5167,267.5979,-2.4652e-05,-6.8e-06,0.0,0 STARLINK-3293,1 50176U 21125W   24160.93498878 -.00000680  00000-0 -24652-4 0  9998,2 50176  53.2154 236.6057 0001340  92.5167 267.5979 15.08845203140217,6917.864,95.437,540.656,538.802,0.0
50176.0,STARLINK-3293,PAYLOAD,2024-06-09 11:09:28,15.08826346,0.0001616,53.2166,234.224,99.3147,260.8027,-0.00029447,-4.97e-05,0.0,0 STARLINK-3293,1 50176U 21125W   24161.46491661 -.00004970  00000-0 -29447-3 0  9992,2 50176  53.2166 234.2240 0001616  99.3147 260.8027 15.08826346137164,6917.922,95.438,540.905,538.669,0.0
50176.0,STARLINK-3293,PAYLOAD,2024-06-09 22:17:10,15.08836164,0.0001809,53.219,232.14,98.0873,262.0324,3.4211e-05,2.56e-06,0.0,0 STARLINK-3293,1 50176U 21125W   24161.92859951  .00000256  00000-0  34211-4 0  9990,2 50176  53.2190 232.1400 0001809  98.0873 262.0324 15.08836164140361,6917.892,95.438,541.009,538.506,0.0
